{"type": "FeatureCollection", "features": [ {"type": "Feature", "properties": {"norad_id": 34529, "name": "IRIDIUM 33 DEB", "group": "iridium-33-debris", "lat": 83.85663321221612, "lon": 67.05354372823214, "alt_km": 746.9352719312546, "timestamp": "2025-12-23T11:34:48.546038+00:00", "meta": {"OBJECT_NAME": "IRIDIUM 33 DEB", "OBJECT_ID": "1997-051HW", "EPOCH": "2025-12-23T02:51:06.200064", "MEAN_MOTION": 14.4062395, "ECCENTRICITY": 0.0005974, "INCLINATION": 86.3631, "RA_OF_ASC_NODE": 30.9869, "ARG_OF_PERICENTER": 147.143, "MEAN_ANOMALY": 213.0142, "EPHEMERIS_TYPE": 0, "CLASSIFICATION_TYPE": "U", "NORAD_CAT_ID": 34529, "ELEMENT_SET_NO": 999, "REV_AT_EPOCH": 88291, "BSTAR": 0.0001169, "MEAN_MOTION_DOT": 3.93e-06, "MEAN_MOTION_DDOT": 0}, "tle": {"line1": "1 34529U 97051HW  25357.11882176  .00000393  00000+0  11690-3 0  9995", "line2": "2 34529  86.3631  30.9869 0005974 147.1430 213.0142 14.40623950882917"}}, "geometry": {"type": "Point", "coordinates": [67.05354372823214, 83.85663321221612]}}, {"type": "Feature", "properties": {"norad_id": 34538, "name": "IRIDIUM 33 DEB", "group": "iridium-33-debris", "lat": 1.9605591705271268, "lon": 0.977575470790718, "alt_km": 744.8887593412583, "timestamp": "2025-12-23T11:34:48.546048+00:00", "meta": {"OBJECT_NAME": "IRIDIUM 33 DEB", "OBJECT_ID": "1997-051JF", "EPOCH": "2025-12-22T06:12:04.821696", "MEAN_MOTION": 14.42700609, "ECCENTRICITY": 0.00320413, "INCLINATION": 86.2762, "RA_OF_ASC_NODE": 1.3859, "ARG_OF_PERICENTER": 295.0641, "MEAN_ANOMALY": 192.9769, "EPHEMERIS_TYPE": 0, "CLASSIFICATION_TYPE": "U", "NORAD_CAT_ID": 34538, "ELEMENT_SET_NO": 999, "REV_AT_EPOCH": 87893, "BSTAR": 0.00089518329, "MEAN_MOTION_DOT": 3.015e-05, "MEAN_MOTION_DDOT": 0}, "tle": {"line1": "1 34538U 97051JF  25356.25838914  .00003015  00000+0  89518-3 0  9998", "line2": "2 34538  86.2762   1.3859 0032041 295.0641 192.9769 14.42700609878930"}}, "geometry": {"type": "Point", "coordinates": [0.977575470790718, 1.9605591705271268]}}, {"type": "Feature", "properties": {"norad_id": 34540, "name": "IRIDIUM 33 DEB", "group": "iridium-33-debris", "lat": -64.48159927958119, "lon": 130.46020395381584, "alt_km": 657.370542952759, "timestamp": "2025-12-23T11:34:48.546057+00:00", "meta": {"OBJECT_NAME": "IRIDIUM 33 DEB", "OBJECT_ID": "1997-051JH", "EPOCH": "2025-12-22T19:58:08.744160", "MEAN_MOTION": 14.75512106, "ECCENTRICITY": 0.00179406, "INCLINATION": 86.3119, "RA_OF_ASC_NODE": 302.992, "ARG_OF_PERICENTER": 125.3836, "MEAN_ANOMALY": 266.2203, "EPHEMERIS_TYPE": 0, "CLASSIFICATION_TYPE": "U", "NORAD_CAT_ID": 34540, "ELEMENT_SET_NO": 999, "REV_AT_EPOCH": 89170, "BSTAR": 0.0015814186, "MEAN_MOTION_DOT": 0.00010821, "MEAN_MOTION_DDOT": 0}, "tle": {"line1": "1 34540U 97051JH  25356.83204565  .00010821  00000+0  15814-2 0  9994", "line2": "2 34540  86.3119 302.9920 0017940 125.3836 266.2203 14.75512106891708"}}, "geometry": {"type": "Point", "coordinates": [130.46020395381584, -64.48159927958119]}}, {"type": "Feature", "properties": {"norad_id": 34648, "name": "IRIDIUM 33 DEB", "group": "iridium-33-debris", "lat": 86.0016130611583, "lon": -17.8416400706843, "alt_km": 975.6556530632351, "timestamp": "2025-12-23T11:34:48.546066+00:00", "meta": {"OBJECT_NAME": "IRIDIUM 33 DEB", "OBJECT_ID": "1997-051JZ", "EPOCH": "2025-12-21T18:19:39.887904", "MEAN_MOTION": 14.11736102, "ECCENTRICITY": 0.01798232, "INCLINATION": 86.3908, "RA_OF_ASC_NODE": 278.3021, "ARG_OF_PERICENTER": 270.6006, "MEAN_ANOMALY": 87.4576, "EPHEMERIS_TYPE": 0, "CLASSIFICATION_TYPE": "U", "NORAD_CAT_ID": 34648, "ELEMENT_SET_NO": 999, "REV_AT_EPOCH": 85088, "BSTAR": 0.0054657739, "MEAN_MOTION_DOT": 0.00011615, "MEAN_MOTION_DDOT": 0}, "tle": {"line1": "1 34648U 97051JZ  25355.76365611  .00011615  00000+0  54658-2 0  9995", "line2": "2 34648  86.3908 278.3021 0179823 270.6006  87.4576 14.11736102850887"}}, "geometry": {"type": "Point", "coordinates": [-17.8416400706843, 86.0016130611583]}}, {"type": "Feature", "properties": {"norad_id": 34651, "name": "IRIDIUM 33 DEB", "group": "iridium-33-debris", "lat": -23.30097827053885, "lon": 134.40236068089553, "alt_km": 910.2184895614155, "timestamp": "2025-12-23T11:34:48.546076+00:00", "meta": {"OBJECT_NAME": "IRIDIUM 33 DEB", "OBJECT_ID": "1997-051KC", "EPOCH": "2025-12-19T16:44:48.420096", "MEAN_MOTION": 14.25922062, "ECCENTRICITY": 0.01422464, "INCLINATION": 86.2827, "RA_OF_ASC_NODE": 137.6175, "ARG_OF_PERICENTER": 181.9677, "MEAN_ANOMALY": 178.0974, "EPHEMERIS_TYPE": 0, "CLASSIFICATION_TYPE": "U", "NORAD_CAT_ID": 34651, "ELEMENT_SET_NO": 999, "REV_AT_EPOCH": 85995, "BSTAR": 0.0022061693, "MEAN_MOTION_DOT": 5.865e-05, "MEAN_MOTION_DDOT": 0}, "tle": {"line1": "1 34651U 97051KC  25353.69778264  .00005865  00000+0  22062-2 0  9995", "line2": "2 34651  86.2827 137.6175 0142246 181.9677 178.0974 14.25922062859957"}}, "geometry": {"type": "Point", "coordinates": [134.40236068089553, -23.30097827053885]}}, {"type": "Feature", "properties": {"norad_id": 34652, "name": "IRIDIUM 33 DEB", "group": "iridium-33-debris", "lat": -14.156673653261974, "lon": -25.70973275711845, "alt_km": 689.9767214116282, "timestamp": "2025-12-23T11:34:48.546084+00:00", "meta": {"OBJECT_NAME": "IRIDIUM 33 DEB", "OBJECT_ID": "1997-051KD", "EPOCH": "2025-12-22T22:37:56.807904", "MEAN_MOTION": 14.62145244, "ECCENTRICITY": 0.002545, "INCLINATION": 86.3316, "RA_OF_ASC_NODE": 335.4576, "ARG_OF_PERICENTER": 260.7991, "MEAN_ANOMALY": 126.9649, "EPHEMERIS_TYPE": 0, "CLASSIFICATION_TYPE": "U", "NORAD_CAT_ID": 34652, "ELEMENT_SET_NO": 999, "REV_AT_EPOCH": 88633, "BSTAR": 0.00098275, "MEAN_MOTION_DOT": 4.986e-05, "MEAN_MOTION_DDOT": 0}, "tle": {"line1": "1 34652U 97051KD  25356.94301861  .00004986  00000+0  98275-3 0  9995", "line2": "2 34652  86.3316 335.4576 0025450 260.7991 126.9649 14.62145244886330"}}, "geometry": {"type": "Point", "coordinates": [-25.70973275711845, -14.156673653261974]}}, {"type": "Feature", "properties": {"norad_id": 34690, "name": "IRIDIUM 33 DEB", "group": "iridium-33-debris", "lat": -61.434677890314546, "lon": 25.63901302601965, "alt_km": 712.2957223395451, "timestamp": "2025-12-23T11:34:48.546093+00:00", "meta": {"OBJECT_NAME": "IRIDIUM 33 DEB", "OBJECT_ID": "1997-051KM", "EPOCH": "2025-12-23T02:05:55.177152", "MEAN_MOTION": 14.55131538, "ECCENTRICITY": 0.0009633, "INCLINATION": 86.3772, "RA_OF_ASC_NODE": 32.4934, "ARG_OF_PERICENTER": 354.9815, "MEAN_ANOMALY": 35.335, "EPHEMERIS_TYPE": 0, "CLASSIFICATION_TYPE": "U", "NORAD_CAT_ID": 34690, "ELEMENT_SET_NO": 999, "REV_AT_EPOCH": 88245, "BSTAR": 0.00039543, "MEAN_MOTION_DOT": 1.728e-05, "MEAN_MOTION_DDOT": 0}, "tle": {"line1": "1 34690U 97051KM  25357.08744418  .00001728  00000+0  39543-3 0  9996", "line2": "2 34690  86.3772  32.4934 0009633 354.9815  35.3350 14.55131538882450"}}, "geometry": {"type": "Point", "coordinates": [25.63901302601965, -61.434677890314546]}}, {"type": "Feature", "properties": {"norad_id": 34693, "name": "IRIDIUM 33 DEB", "group": "iridium-33-debris", "lat": -32.52182473270606, "lon": -63.88309583908958, "alt_km": 477.56803504557774, "timestamp": "2025-12-23T11:34:48.546102+00:00", "meta": {"OBJECT_NAME": "IRIDIUM 33 DEB", "OBJECT_ID": "1997-051KQ", "EPOCH": "2025-12-23T02:21:36.766080", "MEAN_MOTION": 15.30387063, "ECCENTRICITY": 0.0010649, "INCLINATION": 86.3056, "RA_OF_ASC_NODE": 298.6696, "ARG_OF_PERICENTER": 34.5294, "MEAN_ANOMALY": 337.965, "EPHEMERIS_TYPE": 0, "CLASSIFICATION_TYPE": "U", "NORAD_CAT_ID": 34693, "ELEMENT_SET_NO": 999, "REV_AT_EPOCH": 89073, "BSTAR": 0.0048464, "MEAN_MOTION_DOT": 0.001451, "MEAN_MOTION_DDOT": 0}, "tle": {"line1": "1 34693U 97051KQ  25357.09834220  .00145100  00000+0  48464-2 0  9995", "line2": "2 34693  86.3056 298.6696 0010649  34.5294 337.9650 15.30387063890734"}}, "geometry": {"type": "Point", "coordinates": [-63.88309583908958, -32.52182473270606]}}, {"type": "Feature", "properties": {"norad_id": 34696, "name": "IRIDIUM 33 DEB", "group": "iridium-33-debris", "lat": 67.52308622468131, "lon": -166.76276963462033, "alt_km": 619.3837847921495, "timestamp": "2025-12-23T11:34:48.546111+00:00", "meta": {"OBJECT_NAME": "IRIDIUM 33 DEB", "OBJECT_ID": "1997-051KT", "EPOCH": "2025-12-23T01:22:31.056960", "MEAN_MOTION": 14.65554291, "ECCENTRICITY": 0.0074019, "INCLINATION": 86.1834, "RA_OF_ASC_NODE": 22.7202, "ARG_OF_PERICENTER": 132.72, "MEAN_ANOMALY": 257.7556, "EPHEMERIS_TYPE": 0, "CLASSIFICATION_TYPE": "U", "NORAD_CAT_ID": 34696, "ELEMENT_SET_NO": 999, "REV_AT_EPOCH": 86824, "BSTAR": 0.0043723, "MEAN_MOTION_DOT": 0.00024778, "MEAN_MOTION_DDOT": 0}, "tle": {"line1": "1 34696U 97051KT  25357.05730390  .00024778  00000+0  43723-2 0  9997", "line2": "2 34696  86.1834  22.7202 0074019 132.7200 257.7556 14.65554291868248"}}, "geometry": {"type": "Point", "coordinates": [-166.76276963462033, 67.52308622468131]}}, {"type": "Feature", "properties": {"norad_id": 34765, "name": "IRIDIUM 33 DEB", "group": "iridium-33-debris", "lat": 57.87468268174269, "lon": -157.7020001467301, "alt_km": 744.224376618191, "timestamp": "2025-12-23T11:34:48.546120+00:00", "meta": {"OBJECT_NAME": "IRIDIUM 33 DEB", "OBJECT_ID": "1997-051LJ", "EPOCH": "2025-12-23T02:58:27.844032", "MEAN_MOTION": 14.40490027, "ECCENTRICITY": 0.0016653, "INCLINATION": 86.3383, "RA_OF_ASC_NODE": 28.3053, "ARG_OF_PERICENTER": 176.053, "MEAN_ANOMALY": 247.6854, "EPHEMERIS_TYPE": 0, "CLASSIFICATION_TYPE": "U", "NORAD_CAT_ID": 34765, "ELEMENT_SET_NO": 999, "REV_AT_EPOCH": 87763, "BSTAR": 0.00035771, "MEAN_MOTION_DOT": 1.159e-05, "MEAN_MOTION_DDOT": 0}, "tle": {"line1": "1 34765U 97051LJ  25357.12393338  .00001159  00000+0  35771-3 0  9992", "line2": "2 34765  86.3383  28.3053 0016653 176.0530 247.6854 14.40490027877630"}}, "geometry": {"type": "Point", "coordinates": [-157.7020001467301, 57.87468268174269]}}]}